{"version": 0.6, "generator": "Overpass API 0.7.62.7 375dc00a", "osm3s": {"timestamp_osm_base": "2025-06-25T21:32:45Z", "copyright": "The data included in this document is from www.openstreetmap.org. The data is made available under ODbL."}, "elements": [{"type": "node", "id": 6432761934, "lat": -13.2908021, "lon": 40.5555984, "tags": {"alt_name": "Mecufi Centro de Saude II", "amenity": "clinic", "name": "Centro de Saude de Micufe", "source": "MSFsurvey"}}, {"type": "node", "id": 6432778455, "lat": -13.4165852, "lon": 40.5266963, "tags": {"amenity": "clinic", "name": "Centro de Saude de Natuco", "source": "MSFsurvey"}}, {"type": "node", "id": 7579750985, "lat": -13.2902201, "lon": 40.55519, "tags": {"amenity": "bank", "name": "Banco Millenium Bim Mecufi"}}, {"type": "node", "id": 7694585985, "lat": -13.4176644, "lon": 40.5233286, "tags": {"amenity": "community_centre", "name": "Centro Comunit\u00e1rio de Natuco"}}, {"type": "node", "id": 7698605585, "lat": -13.289732, "lon": 40.5547957, "tags": {"amenity": "community_centre", "name": "Bairro Mata", "name:pt": "Bairro Metacane (Mecufi)"}}]}